{"type": "FeatureCollection", "features": [ {"type": "Feature", "properties": {"norad_id": 65942, "name": "BOTAN", "group": "stations", "lat": 8.0649931291472, "lon": -4.27669117638923, "alt_km": 382.6623202621031, "timestamp": "2025-12-04T05:42:42.177988+00:00", "meta": {"OBJECT_NAME": "BOTAN", "OBJECT_ID": "1998-067XP", "EPOCH": "2025-12-03T18:13:47.902944", "MEAN_MOTION": 15.60510623, "ECCENTRICITY": 0.00042436, "INCLINATION": 51.6281, "RA_OF_ASC_NODE": 184.5795, "ARG_OF_PERICENTER": 175.2259, "MEAN_ANOMALY": 184.8775, "EPHEMERIS_TYPE": 0, "CLASSIFICATION_TYPE": "U", "NORAD_CAT_ID": 65942, "ELEMENT_SET_NO": 999, "REV_AT_EPOCH": 846, "BSTAR": 0.0013484674, "MEAN_MOTION_DOT": 0.00114481, "MEAN_MOTION_DDOT": 0}, "tle": {"line1": "1 65942U 98067XP  25337.75958221  .00114481  00000+0  13485-2 0  9996", "line2": "2 65942  51.6281 184.5795 0004243 175.2259 184.8775 15.60510623  8461"}}, "geometry": {"type": "Point", "coordinates": [-4.27669117638923, 8.0649931291472]}}, {"type": "Feature", "properties": {"norad_id": 65943, "name": "E-KAGAKU-1", "group": "stations", "lat": -45.38394873367681, "lon": 129.2406414698752, "alt_km": 399.9875765211664, "timestamp": "2025-12-04T05:42:42.177998+00:00", "meta": {"OBJECT_NAME": "E-KAGAKU-1", "OBJECT_ID": "1998-067XQ", "EPOCH": "2025-12-02T21:39:34.941600", "MEAN_MOTION": 15.57714998, "ECCENTRICITY": 0.00035202, "INCLINATION": 51.6296, "RA_OF_ASC_NODE": 189.358, "ARG_OF_PERICENTER": 147.4331, "MEAN_ANOMALY": 212.6879, "EPHEMERIS_TYPE": 0, "CLASSIFICATION_TYPE": "U", "NORAD_CAT_ID": 65943, "ELEMENT_SET_NO": 999, "REV_AT_EPOCH": 832, "BSTAR": 0.00096701912, "MEAN_MOTION_DOT": 0.00073283, "MEAN_MOTION_DDOT": 0}, "tle": {"line1": "1 65943U 98067XQ  25336.90248775  .00073283  00000+0  96702-3 0  9997", "line2": "2 65943  51.6296 189.3580 0003520 147.4331 212.6879 15.57714998  8329"}}, "geometry": {"type": "Point", "coordinates": [129.2406414698752, -45.38394873367681]}}, {"type": "Feature", "properties": {"norad_id": 66052, "name": "HRC MONOBLOCK CAMERA", "group": "stations", "lat": 47.76902870926827, "lon": -115.33552402461143, "alt_km": 399.97470035627066, "timestamp": "2025-12-04T05:42:42.178008+00:00", "meta": {"OBJECT_NAME": "HRC MONOBLOCK CAMERA", "OBJECT_ID": "1998-067XR", "EPOCH": "2025-12-03T20:08:36.473856", "MEAN_MOTION": 15.53262535, "ECCENTRICITY": 0.00043606, "INCLINATION": 51.6292, "RA_OF_ASC_NODE": 185.857, "ARG_OF_PERICENTER": 148.6875, "MEAN_ANOMALY": 211.4376, "EPHEMERIS_TYPE": 0, "CLASSIFICATION_TYPE": "U", "NORAD_CAT_ID": 66052, "ELEMENT_SET_NO": 999, "REV_AT_EPOCH": 745, "BSTAR": 0.00077352903, "MEAN_MOTION_DOT": 0.00049466, "MEAN_MOTION_DDOT": 0}, "tle": {"line1": "1 66052U 98067XR  25337.83931104  .00049466  00000+0  77353-3 0  9994", "line2": "2 66052  51.6292 185.8570 0004360 148.6875 211.4376 15.53262535  7459"}}, "geometry": {"type": "Point", "coordinates": [-115.33552402461143, 47.76902870926827]}}, {"type": "Feature", "properties": {"norad_id": 66174, "name": "HTV-X1", "group": "stations", "lat": 51.27874915958826, "lon": -76.61803443335987, "alt_km": 412.445141538341, "timestamp": "2025-12-04T05:42:42.178020+00:00", "meta": {"OBJECT_NAME": "HTV-X1", "OBJECT_ID": "2025-241A", "EPOCH": "2025-12-03T21:33:39.277728", "MEAN_MOTION": 15.4928465, "ECCENTRICITY": 0.00035922, "INCLINATION": 51.6303, "RA_OF_ASC_NODE": 186.2514, "ARG_OF_PERICENTER": 201.3576, "MEAN_ANOMALY": 158.7263, "EPHEMERIS_TYPE": 0, "CLASSIFICATION_TYPE": "U", "NORAD_CAT_ID": 66174, "ELEMENT_SET_NO": 999, "REV_AT_EPOCH": 51, "BSTAR": 0.00025253496, "MEAN_MOTION_DOT": 0.00013627, "MEAN_MOTION_DDOT": 0}, "tle": {"line1": "1 66174U 25241A   25337.89837127  .00013627  00000+0  25253-3 0  9991", "line2": "2 66174  51.6303 186.2514 0003592 201.3576 158.7263 15.49284650   516"}}, "geometry": {"type": "Point", "coordinates": [-76.61803443335987, 51.27874915958826]}}, {"type": "Feature", "properties": {"norad_id": 66515, "name": "SZ-21 MODULE", "group": "stations", "lat": 32.5119389158423, "lon": 114.06115433450512, "alt_km": 380.6052469601882, "timestamp": "2025-12-04T05:42:42.178030+00:00", "meta": {"OBJECT_NAME": "SZ-21 MODULE", "OBJECT_ID": "2025-246C", "EPOCH": "2025-12-03T07:59:41.917920", "MEAN_MOTION": 15.61790567, "ECCENTRICITY": 0.0005832, "INCLINATION": 41.4771, "RA_OF_ASC_NODE": 73.3983, "ARG_OF_PERICENTER": 205.8085, "MEAN_ANOMALY": 154.2464, "EPHEMERIS_TYPE": 0, "CLASSIFICATION_TYPE": "U", "NORAD_CAT_ID": 66515, "ELEMENT_SET_NO": 999, "REV_AT_EPOCH": 297, "BSTAR": 0.00036812, "MEAN_MOTION_DOT": 0.0003262, "MEAN_MOTION_DDOT": 0}, "tle": {"line1": "1 66515U 25246C   25337.33312405  .00032620  00000+0  36812-3 0  9998", "line2": "2 66515  41.4771  73.3983 0005832 205.8085 154.2464 15.61790567  2979"}}, "geometry": {"type": "Point", "coordinates": [114.06115433450512, 32.5119389158423]}}, {"type": "Feature", "properties": {"norad_id": 66645, "name": "SHENZHOU-22", "group": "stations", "lat": -37.326444460344554, "lon": -51.99169981008984, "alt_km": 393.31189097711285, "timestamp": "2025-12-04T05:42:42.178041+00:00", "meta": {"OBJECT_NAME": "SHENZHOU-22", "OBJECT_ID": "2025-272A", "EPOCH": "2025-12-03T17:53:39.447744", "MEAN_MOTION": 15.58598848, "ECCENTRICITY": 0.00100687, "INCLINATION": 41.4679, "RA_OF_ASC_NODE": 71.2873, "ARG_OF_PERICENTER": 322.1315, "MEAN_ANOMALY": 37.8814, "EPHEMERIS_TYPE": 0, "CLASSIFICATION_TYPE": "U", "NORAD_CAT_ID": 66645, "ELEMENT_SET_NO": 999, "REV_AT_EPOCH": 26263, "BSTAR": 0.00035132982, "MEAN_MOTION_DOT": 0.00027527, "MEAN_MOTION_DDOT": 0}, "tle": {"line1": "1 66645U 25272A   25337.74559546  .00027527  00000+0  35133-3 0  9990", "line2": "2 66645  41.4679  71.2873 0010068 322.1315  37.8814 15.58598848262631"}}, "geometry": {"type": "Point", "coordinates": [-51.99169981008984, -37.326444460344554]}}, {"type": "Feature", "properties": {"norad_id": 66646, "name": "CZ-2F R/B", "group": "stations", "lat": -28.130128963874903, "lon": 27.064033953621557, "alt_km": 285.00372941064415, "timestamp": "2025-12-04T05:42:42.178051+00:00", "meta": {"OBJECT_NAME": "CZ-2F R/B", "OBJECT_ID": "2025-272B", "EPOCH": "2025-11-26T11:17:54.506400", "MEAN_MOTION": 16.01945612, "ECCENTRICITY": 0.01210796, "INCLINATION": 41.4431, "RA_OF_ASC_NODE": 114.9009, "ARG_OF_PERICENTER": 133.7676, "MEAN_ANOMALY": 227.3272, "EPHEMERIS_TYPE": 0, "CLASSIFICATION_TYPE": "U", "NORAD_CAT_ID": 66646, "ELEMENT_SET_NO": 999, "REV_AT_EPOCH": 21, "BSTAR": 0.00029319366, "MEAN_MOTION_DOT": 0.00449059, "MEAN_MOTION_DDOT": 7.567612e-06}, "tle": {"line1": "1 66646U 25272B   25330.47076975  .00449059  75676-5  29319-3 0  9998", "line2": "2 66646  41.4431 114.9009 0121079 133.7676 227.3272 16.01945612   217"}}, "geometry": {"type": "Point", "coordinates": [27.064033953621557, -28.130128963874903]}}, {"type": "Feature", "properties": {"norad_id": 66664, "name": "SOYUZ-MS 28", "group": "stations", "lat": 51.27874884113189, "lon": -76.61803022668411, "alt_km": 412.4451414741161, "timestamp": "2025-12-04T05:42:42.178061+00:00", "meta": {"OBJECT_NAME": "SOYUZ-MS 28", "OBJECT_ID": "2025-275A", "EPOCH": "2025-12-03T21:33:39.277728", "MEAN_MOTION": 15.4928465, "ECCENTRICITY": 0.00035922, "INCLINATION": 51.6303, "RA_OF_ASC_NODE": 186.2514, "ARG_OF_PERICENTER": 201.3576, "MEAN_ANOMALY": 158.7263, "EPHEMERIS_TYPE": 0, "CLASSIFICATION_TYPE": "U", "NORAD_CAT_ID": 66664, "ELEMENT_SET_NO": 999, "REV_AT_EPOCH": 107, "BSTAR": 0.00025253496, "MEAN_MOTION_DOT": 0.00013627, "MEAN_MOTION_DDOT": 0}, "tle": {"line1": "1 66664U 25275A   25337.89837127  .00013627  00000+0  25253-3 0  9992", "line2": "2 66664  51.6303 186.2514 0003592 201.3576 158.7263 15.49284650  1072"}}, "geometry": {"type": "Point", "coordinates": [-76.61803022668411, 51.27874884113189]}}]}